[
    {
        "Altitude(m)": 554398.9737238872,
        "Argument of Periapsis(deg)": 0.026491964442854003,
        "Eccentricity": 0.0,
        "Inclination(deg)": 53.0,
        "Latitude(deg)": -1.224471292295902,
        "Longitude(deg)": -154.10184888799125,
        "Mean Anomaly(deg)": -1.4517285296896525,
        "RAAN(deg)": 309.9605734741121,
        "Satellite Name": "Starlink Shell 1 1383",
        "Satellite Number": 1383,
        "Semi-Major Axis(m)": 6931778.249405717,
        "Time(s)": 760
    },
    {
        "Altitude(m)": 554328.215652925,
        "Argument of Periapsis(deg)": 0.02684054292236524,
        "Eccentricity": 0.0,
        "Inclination(deg)": 53.0,
        "Latitude(deg)": -0.7205920572230693,
        "Longitude(deg)": -153.7663832892248,
        "Mean Anomaly(deg)": -0.824897326132906,
        "RAAN(deg)": 309.9600547040346,
        "Satellite Name": "Starlink Shell 1 1383",
        "Satellite Number": 1383,
        "Semi-Major Axis(m)": 6931778.249405717,
        "Time(s)": 770
    },
    {
        "Altitude(m)": 554260.2426131244,
        "Argument of Periapsis(deg)": 0.027189121401876473,
        "Eccentricity": 0.0,
        "Inclination(deg)": 53.0,
        "Latitude(deg)": -0.21667052074730922,
        "Longitude(deg)": -153.43099323521344,
        "Mean Anomaly(deg)": -0.19806612257615952,
        "RAAN(deg)": 309.9595359339571,
        "Satellite Name": "Starlink Shell 1 1383",
        "Satellite Number": 1383,
        "Semi-Major Axis(m)": 6931778.249405717,
        "Time(s)": 780
    },
    {
        "Altitude(m)": 554195.0638563592,
        "Argument of Periapsis(deg)": 0.02753769988138771,
        "Eccentricity": 0.0,
        "Inclination(deg)": 53.0,
        "Latitude(deg)": 0.2872704226347438,
        "Longitude(deg)": -153.09562069222025,
        "Mean Anomaly(deg)": 0.4287650809805362,
        "RAAN(deg)": 309.95901716387965,
        "Satellite Name": "Starlink Shell 1 1383",
        "Satellite Number": 1383,
        "Semi-Major Axis(m)": 6931778.249405717,
        "Time(s)": 790
    },
    {
        "Altitude(m)": 554132.6872798881,
        "Argument of Periapsis(deg)": 0.02788627836089895,
        "Eccentricity": 0.0,
        "Inclination(deg)": 53.0,
        "Latitude(deg)": 0.7912078796608664,
        "Longitude(deg)": -152.76020813596736,
        "Mean Anomaly(deg)": 1.0555962845372826,
        "RAAN(deg)": 309.9584983938022,
        "Satellite Name": "Starlink Shell 1 1383",
        "Satellite Number": 1383,
        "Semi-Major Axis(m)": 6931778.249405717,
        "Time(s)": 800
    },
    {
        "Altitude(m)": 554073.119425215,
        "Argument of Periapsis(deg)": 0.02823485684041019,
        "Eccentricity": 0.0,
        "Inclination(deg)": 53.0,
        "Latitude(deg)": 1.2951189466250455,
        "Longitude(deg)": -152.42469802212082,
        "Mean Anomaly(deg)": 1.682427488094029,
        "RAAN(deg)": 309.9579796237247,
        "Satellite Name": "Starlink Shell 1 1383",
        "Satellite Number": 1383,
        "Semi-Major Axis(m)": 6931778.249405717,
        "Time(s)": 810
    },
    {
        "Altitude(m)": 554016.3654775452,
        "Argument of Periapsis(deg)": 0.028583435319921423,
        "Eccentricity": 0.0,
        "Inclination(deg)": 53.0,
        "Latitude(deg)": 1.79898069769129,
        "Longitude(deg)": -152.08903225676585,
        "Mean Anomaly(deg)": 2.309258691650674,
        "RAAN(deg)": 309.9574608536472,
        "Satellite Name": "Starlink Shell 1 1383",
        "Satellite Number": 1383,
        "Semi-Major Axis(m)": 6931778.249405717,
        "Time(s)": 820
    },
    {
        "Altitude(m)": 553962.429265997,
        "Argument of Periapsis(deg)": 0.028932013799432665,
        "Eccentricity": 0.0,
        "Inclination(deg)": 53.0,
        "Latitude(deg)": 2.3027701731896344,
        "Longitude(deg)": -151.75315317973764,
        "Mean Anomaly(deg)": 2.9360898952073695,
        "RAAN(deg)": 309.95694208356974,
        "Satellite Name": "Starlink Shell 1 1383",
        "Satellite Number": 1383,
        "Semi-Major Axis(m)": 6931778.249405717,
        "Time(s)": 830
    },
    {
        "Altitude(m)": 553911.3132644381,
        "Argument of Periapsis(deg)": 0.029280592278943897,
        "Eccentricity": 0.0,
        "Inclination(deg)": 53.0,
        "Latitude(deg)": 2.8064643678783163,
        "Longitude(deg)": -151.41700303505456,
        "Mean Anomaly(deg)": 3.562921098764116,
        "RAAN(deg)": 309.95642331349234,
        "Satellite Name": "Starlink Shell 1 1383",
        "Satellite Number": 1383,
        "Semi-Major Axis(m)": 6931778.249405717,
        "Time(s)": 840
    },
    {
        "Altitude(m)": 553863.0185930316,
        "Argument of Periapsis(deg)": 0.029629170758455132,
        "Eccentricity": 0.0,
        "Inclination(deg)": 53.0,
        "Latitude(deg)": 3.310040219163425,
        "Longitude(deg)": -151.08052344131892,
        "Mean Anomaly(deg)": 4.189752302320863,
        "RAAN(deg)": 309.9559045434148,
        "Satellite Name": "Starlink Shell 1 1383",
        "Satellite Number": 1383,
        "Semi-Major Axis(m)": 6931778.249405717,
        "Time(s)": 850
    },
    {
        "Altitude(m)": 553817.5450204287,
        "Argument of Periapsis(deg)": 0.02997774923796637,
        "Eccentricity": 0.0,
        "Inclination(deg)": 53.0,
        "Latitude(deg)": 3.8134745952676052,
        "Longitude(deg)": -150.74365654304796,
        "Mean Anomaly(deg)": 4.816583505877558,
        "RAAN(deg)": 309.9553857733373,
        "Satellite Name": "Starlink Shell 1 1383",
        "Satellite Number": 1383,
        "Semi-Major Axis(m)": 6931778.249405717,
        "Time(s)": 860
    },
    {
        "Altitude(m)": 553774.8909666771,
        "Argument of Periapsis(deg)": 0.030326327717477602,
        "Eccentricity": 0.0,
        "Inclination(deg)": 53.0,
        "Latitude(deg)": 4.316744283329639,
        "Longitude(deg)": -150.40634364050294,
        "Mean Anomaly(deg)": 5.443414709434253,
        "RAAN(deg)": 309.9548670032599,
        "Satellite Name": "Starlink Shell 1 1383",
        "Satellite Number": 1383,
        "Semi-Major Axis(m)": 6931778.249405717,
        "Time(s)": 870
    },
    {
        "Altitude(m)": 553735.0535067642,
        "Argument of Periapsis(deg)": 0.030674906196988847,
        "Eccentricity": 0.0,
        "Inclination(deg)": 53.0,
        "Latitude(deg)": 4.819825977431119,
        "Longitude(deg)": -150.0685263409205,
        "Mean Anomaly(deg)": 6.0702459129910515,
        "RAAN(deg)": 309.95434823318243,
        "Satellite Name": "Starlink Shell 1 1383",
        "Satellite Number": 1383,
        "Semi-Major Axis(m)": 6931778.249405717,
        "Time(s)": 880
    },
    {
        "Altitude(m)": 553698.0283748534,
        "Argument of Periapsis(deg)": 0.031023484676500086,
        "Eccentricity": 0.0,
        "Inclination(deg)": 53.0,
        "Latitude(deg)": 5.322696266532587,
        "Longitude(deg)": -149.7301460287133,
        "Mean Anomaly(deg)": 6.697077116547748,
        "RAAN(deg)": 309.9538294631049,
        "Satellite Name": "Starlink Shell 1 1383",
        "Satellite Number": 1383,
        "Semi-Major Axis(m)": 6931778.249405717,
        "Time(s)": 890
    },
    {
        "Altitude(m)": 553663.8099691736,
        "Argument of Periapsis(deg)": 0.03137206315601132,
        "Eccentricity": 0.0,
        "Inclination(deg)": 53.0,
        "Latitude(deg)": 5.825331622310523,
        "Longitude(deg)": -149.39114333560426,
        "Mean Anomaly(deg)": 7.323908320104341,
        "RAAN(deg)": 309.95331069302745,
        "Satellite Name": "Starlink Shell 1 1383",
        "Satellite Number": 1383,
        "Semi-Major Axis(m)": 6931778.249405717,
        "Time(s)": 900
    },
    {
        "Altitude(m)": 553632.3913576023,
        "Argument of Periapsis(deg)": 0.03172064163552255,
        "Eccentricity": 0.0,
        "Inclination(deg)": 53.0,
        "Latitude(deg)": 6.327708386885581,
        "Longitude(deg)": -149.05145912356312,
        "Mean Anomaly(deg)": 7.950739523661139,
        "RAAN(deg)": 309.95279192295,
        "Satellite Name": "Starlink Shell 1 1383",
        "Satellite Number": 1383,
        "Semi-Major Axis(m)": 6931778.249405717,
        "Time(s)": 910
    },
    {
        "Altitude(m)": 553603.7642838756,
        "Argument of Periapsis(deg)": 0.0320692201150338,
        "Eccentricity": 0.0,
        "Inclination(deg)": 53.0,
        "Latitude(deg)": 6.829802760425342,
        "Longitude(deg)": -148.71103395479187,
        "Mean Anomaly(deg)": 8.577570727217886,
        "RAAN(deg)": 309.9522731528725,
        "Satellite Name": "Starlink Shell 1 1383",
        "Satellite Number": 1383,
        "Semi-Major Axis(m)": 6931778.249405717,
        "Time(s)": 920
    },
    {
        "Altitude(m)": 553577.9191744869,
        "Argument of Periapsis(deg)": 0.032417798594545036,
        "Eccentricity": 0.0,
        "Inclination(deg)": 53.0,
        "Latitude(deg)": 7.33159078861347,
        "Longitude(deg)": -148.36980756162893,
        "Mean Anomaly(deg)": 9.20440193077453,
        "RAAN(deg)": 309.95175438279506,
        "Satellite Name": "Starlink Shell 1 1383",
        "Satellite Number": 1383,
        "Semi-Major Axis(m)": 6931778.249405717,
        "Time(s)": 930
    },
    {
        "Altitude(m)": 553554.8451462134,
        "Argument of Periapsis(deg)": 0.03276637707405627,
        "Eccentricity": 0.0,
        "Inclination(deg)": 53.0,
        "Latitude(deg)": 7.8330483499755506,
        "Longitude(deg)": -148.02771982924057,
        "Mean Anomaly(deg)": 9.831233134331224,
        "RAAN(deg)": 309.95123561271754,
        "Satellite Name": "Starlink Shell 1 1383",
        "Satellite Number": 1383,
        "Semi-Major Axis(m)": 6931778.249405717,
        "Time(s)": 940
    }
]